HTV-X1                  
1 66174U 25241A   26091.14836977  .00000978  00000+0  42398-4 0  9994
2 66174  51.6375 324.8235 0007212 259.7881 100.2287 15.32487490 24382
SZ-21 MODULE            
1 66515U 25246C   26091.21793699  .00041753  00000+0  33315-3 0  9993
2 66515  41.4742  64.4975 0002466 219.0521 141.0144 15.70344798 21613
SHENZHOU-22             
1 66645U 25272A   26090.84865758  .00027797  00000+0  31477-3 0  9999
2 66645  41.4668  73.2165 0003682  84.3022 275.8236 15.61775142281339
SOYUZ-MS 28             
1 66664U 25275A   26091.10102623  .00008862  00000+0  17059-3 0  9990
2 66664  51.6334 321.5639 0006224 257.9417 102.0874 15.48690056559892
DUPLEX                  
1 66906U 98067XS  26091.11529618  .00033711  00000+0  45047-3 0  9995
2 66906  51.6289 317.1598 0003067 216.2059 143.8726 15.57724655 18620
ISS OBJECT XT           
1 66907U 98067XT  26091.00549300  .00252342  00000+0  14153-2 0  9990
2 66907  51.6228 311.1343 0006663 226.0366 134.0085 15.77982760 18693
ISS OBJECT XU           
1 66908U 98067XU  26091.00116574  .00262522  00000+0  14515-2 0  9997
2 66908  51.6232 311.1009 0006920 225.5179 134.5256 15.78272322 18692
SILVERSAT               
1 66909U 98067XV  26091.00682860  .00386729  00000+0  15922-2 0  9993
2 66909  51.6192 309.6226 0008026 232.8926 127.1344 15.84315758 18718
ISS OBJECT XW           
1 66910U 98067XW  26090.88898361  .00206554  00000+0  12591-2 0  9991
2 66910  51.6213 311.8494 0006882 221.1915 138.8566 15.76237796 18679
ISS OBJECT XX           
1 66911U 98067XX  26090.87125946  .00604420  15627-3  17627-2 0  9997
2 66911  51.6169 308.6766 0009955 236.6927 123.3127 15.92173368 18702
ISS OBJECT XY           
1 66912U 98067XY  26090.98142135  .00127422  00000+0  10957-2 0  9995
2 66912  51.6257 314.0012 0004673 219.6211 140.4444 15.68405535 18647
KNACKSAT-2              
1 67683U 98067XZ  26090.99583651  .00046098  00000+0  70857-3 0  9999
2 67683  51.6314 320.8633 0010240 267.3943  92.5875 15.53721795  8254
